IRIDIUM 126             
1 42809U 17039G   25079.79280735  .00000643  00000+0  22243-3 0  9995
2 42809  86.4047 183.1156 0002344  92.2794 267.8670 14.34216615404967
IRIDIUM 124             
1 42810U 17039H   25080.18334928  .00001012  00000+0  29478-3 0  9994
2 42810  86.4464 119.7812 0002070  90.6532 269.4906 14.43276001409773
IRIDIUM 128             
1 42811U 17039J   25079.85331632  .00000349  00000+0  11757-3 0  9999
2 42811  86.4003 214.5517 0001742  90.3920 269.7476 14.34219220405009
IRIDIUM 121             
1 42812U 17039K   25079.81183744  .00000182  00000+0  57913-4 0  9995
2 42812  86.4050 183.1324 0002053 104.7798 255.3625 14.34216590404843
IRIDIUM 133             
1 42955U 17061A   25079.88502976  .00000914  00000+0  31921-3 0  9990
2 42955  86.4006 214.6449 0001998  90.2645 269.8780 14.34220216389807
IRIDIUM 100             
1 42956U 17061B   25079.80891817  .00000431  00000+0  14686-3 0  9991
2 42956  86.4006 214.6061 0001977  92.4109 267.7314 14.34219632389792
IRIDIUM 122             
1 42957U 17061C   25079.28882945  .00000069  00000+0  17502-4 0  9994
2 42957  86.4005 214.8226 0002173  90.6210 269.5235 14.34214924389723
IRIDIUM 129             
1 42958U 17061D   25079.80257369  .00000661  00000+0  22876-3 0  9996
2 42958  86.4005 214.6697 0002354 100.9537 259.1924 14.34221879389819
